[{"OBJECT_NAME":"HAWK-11A","OBJECT_ID":"2024-247F","EPOCH":"2026-03-09T12:17:43.893312","MEAN_MOTION":15.28849427,"ECCENTRICITY":0.00054663,"INCLINATION":44.9941,"RA_OF_ASC_NODE":114.3328,"ARG_OF_PERICENTER":327.3713,"MEAN_ANOMALY":32.6832,"EPHEMERIS_TYPE":0,"CLASSIFICATION_TYPE":"U","NORAD_CAT_ID":62382,"ELEMENT_SET_NO":999,"REV_AT_EPOCH":6774,"BSTAR":0.00034106017,"MEAN_MOTION_DOT":9.457e-5,"MEAN_MOTION_DDOT":0},{"OBJECT_NAME":"STARLINK-35800","OBJECT_ID":"2025-247AC","EPOCH":"2026-03-09T20:29:26.333664","MEAN_MOTION":15.30218347,"ECCENTRICITY":0.00015197,"INCLINATION":53.1604,"RA_OF_ASC_NODE":190.3322,"ARG_OF_PERICENTER":33.9728,"MEAN_ANOMALY":326.137,"EPHEMERIS_TYPE":0,"CLASSIFICATION_TYPE":"U","NORAD_CAT_ID":66291,"ELEMENT_SET_NO":999,"REV_AT_EPOCH":2111,"BSTAR":0.0014607239,"MEAN_MOTION_DOT":0.0004318,"MEAN_MOTION_DDOT":0}]
