HAWK-11A                
1 62382U 24247F   26068.51231358  .00009457  00000+0  34106-3 0  9991
2 62382  44.9941 114.3328 0005466 327.3713  32.6832 15.28849427 67741
STARLINK-35800          
1 66291U 25247AC  26068.85377700  .00043180  00000+0  14607-2 0  9998
2 66291  53.1604 190.3322 0001520  33.9728 326.1370 15.30218347 21116
